[{"OBJECT_NAME":"STARLINK-30914","OBJECT_ID":"2023-178D","EPOCH":"2026-03-09T22:51:21.550464","MEAN_MOTION":15.30181575,"ECCENTRICITY":0.00011197,"INCLINATION":53.1612,"RA_OF_ASC_NODE":359.6999,"ARG_OF_PERICENTER":68.5239,"MEAN_ANOMALY":291.5881,"EPHEMERIS_TYPE":0,"CLASSIFICATION_TYPE":"U","NORAD_CAT_ID":58377,"ELEMENT_SET_NO":999,"REV_AT_EPOCH":12993,"BSTAR":0.00020649459,"MEAN_MOTION_DOT":5.758e-5,"MEAN_MOTION_DDOT":0},{"OBJECT_NAME":"SCS-01 H","OBJECT_ID":"2025-100H","EPOCH":"2026-03-09T23:19:05.376864","MEAN_MOTION":15.31767757,"ECCENTRICITY":0.00071581,"INCLINATION":97.3749,"RA_OF_ASC_NODE":145.8085,"ARG_OF_PERICENTER":277.8492,"MEAN_ANOMALY":82.1937,"EPHEMERIS_TYPE":0,"CLASSIFICATION_TYPE":"U","NORAD_CAT_ID":63989,"ELEMENT_SET_NO":999,"REV_AT_EPOCH":4566,"BSTAR":0.0011436254,"MEAN_MOTION_DOT":0.00035149,"MEAN_MOTION_DDOT":0}]
